NORAD_CAT_ID,OBJECT_NAME,OBJECT_TYPE,EPOCH,MEAN_MOTION,ECCENTRICITY,INCLINATION,RA_OF_ASC_NODE,ARG_OF_PERICENTER,MEAN_ANOMALY,BSTAR,MEAN_MOTION_DOT,MEAN_MOTION_DDOT,TLE_LINE0,TLE_LINE1,TLE_LINE2,SEMIMAJOR_AXIS,PERIOD,APOGEE,PERIGEE,DECAYED
56468.0,STARLINK-5998,PAYLOAD,2024-04-24 21:18:21,14.98333712,0.0002346,70.002,68.385,234.6023,125.4917,9.0317e-06,1.5e-07,0.0,0 STARLINK-5998,1 56468U 23064W   24115.88775134  .00000015  00000-0  90317-5 0  9991,2 56468  70.0020  68.3850 0002346 234.6023 125.4917 14.98333712 52822,6950.181,96.107,573.677,570.416,0.0
56468.0,STARLINK-5998,PAYLOAD,2024-04-25 05:19:02,14.98326523,0.0002467,70.0014,67.5428,245.3477,114.7425,-2.9503e-05,-4.45e-06,0.0,0 STARLINK-5998,1 56468U 23064W   24116.22155688 -.00000445  00000-0 -29503-4 0  9993,2 56468  70.0014  67.5428 0002467 245.3477 114.7425 14.98326523 53236,6950.204,96.107,573.783,570.354,0.0
56468.0,STARLINK-5998,PAYLOAD,2024-04-25 06:55:10,14.98326833,0.0002454,70.0014,67.3739,245.988,114.1023,-3.4277e-05,-5.02e-06,0.0,0 STARLINK-5998,1 56468U 23064W   24116.28831691 -.00000502  00000-0 -34277-4 0  9992,2 56468  70.0014  67.3739 0002454 245.9880 114.1023 14.98326833 52881,6950.203,96.107,573.773,570.362,0.0
56468.0,STARLINK-5998,PAYLOAD,2024-04-25 21:20:22,14.98336233,0.0002742,70.0003,65.8548,267.7018,92.3827,4.0213e-05,3.87e-06,0.0,0 STARLINK-5998,1 56468U 23064W   24116.88914685  .00000387  00000-0  40213-4 0  9999,2 56468  70.0003  65.8548 0002742 267.7018  92.3827 14.98336233 53330,6950.174,96.107,573.944,570.133,0.0
56468.0,STARLINK-5998,PAYLOAD,2024-04-25 22:56:30,14.98336393,0.0002794,70.0002,65.6869,267.8503,92.2337,3.5964e-05,3.36e-06,0.0,0 STARLINK-5998,1 56468U 23064W   24116.95590661  .00000336  00000-0  35964-4 0  9992,2 56468  70.0002  65.6869 0002794 267.8503  92.2337 14.98336393 52982,6950.173,96.107,573.98,570.096,0.0
56468.0,STARLINK-5998,PAYLOAD,2024-04-26 03:44:53,14.98342277,0.0002597,70.0004,65.1831,258.0589,102.0279,8.7049e-05,9.46e-06,0.0,0 STARLINK-5998,1 56468U 23064W   24117.15617964  .00000946  00000-0  87049-4 0  9999,2 56468  70.0004  65.1831 0002597 258.0589 102.0279 14.98342277 53372,6950.155,96.106,573.825,570.215,0.0
56468.0,STARLINK-5998,PAYLOAD,2024-04-26 13:21:42,14.98330147,0.0001941,70.0033,64.1683,305.816,54.2819,0.00015293,1.732e-05,0.0,0 STARLINK-5998,1 56468U 23064W   24117.55674741  .00001732  00000-0  15293-3 0  9994,2 56468  70.0033  64.1683 0001941 305.8160  54.2819 14.98330147 53434,6950.192,96.107,573.406,570.708,0.0
56468.0,STARLINK-5998,PAYLOAD,2024-04-27 13:23:43,14.98330112,0.000257,70.0006,61.6484,269.7799,90.3066,-6.442e-05,-8.61e-06,0.0,0 STARLINK-5998,1 56468U 23064W   24118.55814765 -.00000861  00000-0 -64420-4 0  9998,2 56468  70.0006  61.6484 0002570 269.7799  90.3066 14.98330112 53583,6950.193,96.107,573.844,570.271,0.0
56468.0,STARLINK-5998,PAYLOAD,2024-04-27 21:24:24,14.98327003,0.0002449,70.0008,60.8081,260.3192,99.7691,-0.00020335,-2.518e-05,0.0,0 STARLINK-5998,1 56468U 23064W   24118.89195428 -.00002518  00000-0 -20335-3 0  9990,2 56468  70.0008  60.8081 0002449 260.3192  99.7691 14.98327003 53276,6950.202,96.107,573.769,570.365,0.0
56468.0,STARLINK-5998,PAYLOAD,2024-04-28 03:48:57,14.98321361,0.0002698,70.0007,60.1356,258.5914,101.4942,-0.00025295,-3.109e-05,0.0,0 STARLINK-5998,1 56468U 23064W   24119.15899976 -.00003109  00000-0 -25295-3 0  9996,2 56468  70.0007  60.1356 0002698 258.5914 101.4942 14.98321361 53675,6950.22,96.108,573.96,570.209,0.0
56468.0,STARLINK-5998,PAYLOAD,2024-04-28 05:25:05,14.98321821,0.0002691,70.0008,59.9674,258.8242,101.2614,-0.00024169,-2.975e-05,0.0,0 STARLINK-5998,1 56468U 23064W   24119.22575949 -.00002975  00000-0 -24169-3 0  9994,2 56468  70.0008  59.9674 0002691 258.8242 101.2614 14.98321821 53322,6950.218,96.108,573.953,570.213,0.0
56468.0,STARLINK-5998,PAYLOAD,2024-04-28 21:26:25,14.98326589,0.0002729,70.0005,58.2825,269.5458,90.5388,3.7637e-05,3.56e-06,0.0,0 STARLINK-5998,1 56468U 23064W   24119.89335082  .00000356  00000-0  37637-4 0  9993,2 56468  70.0005  58.2825 0002729 269.5458  90.5388 14.98326589 53783,6950.203,96.107,573.965,570.172,0.0
56468.0,STARLINK-5998,PAYLOAD,2024-04-28 23:02:33,14.98326616,0.0002739,70.0006,58.1141,269.4237,90.6608,3.896e-05,3.72e-06,0.0,0 STARLINK-5998,1 56468U 23064W   24119.96011090  .00000372  00000-0  38960-4 0  9999,2 56468  70.0006  58.1141 0002739 269.4237  90.6608 14.98326616 53438,6950.203,96.107,573.972,570.165,0.0
56468.0,STARLINK-5998,PAYLOAD,2024-04-29 05:27:05,14.98333563,0.0002821,70.0004,57.4408,270.5531,89.5305,5.151e-05,5.22e-06,0.0,0 STARLINK-5998,1 56468U 23064W   24120.22714622  .00000522  00000-0  51510-4 0  9994,2 56468  70.0004  57.4408 0002821 270.5531  89.5305 14.98333563 53830,6950.182,96.107,574.008,570.086,0.0
56468.0,STARLINK-5998,PAYLOAD,2024-04-29 13:27:45,14.98334406,0.0002944,70.0001,56.5984,272.256,87.8262,-1.6983e-05,-2.96e-06,0.0,0 STARLINK-5998,1 56468U 23064W   24120.56094673 -.00000296  00000-0 -16983-4 0  9993,2 56468  70.0001  56.5984 0002944 272.2560  87.8262 14.98334406 53529,6950.179,96.107,574.09,569.998,0.0
56468.0,STARLINK-5998,PAYLOAD,2024-04-29 21:28:26,14.98309659,0.0002994,70.0001,55.7561,267.1461,92.9355,0.00039525,4.624e-05,0.0,0 STARLINK-5998,1 56468U 23064W   24120.89475191  .00004624  00000-0  39525-3 0  9990,2 56468  70.0001  55.7561 0002994 267.1461  92.9355 14.98309659 53936,6950.256,96.108,574.202,570.04,0.0
56468.0,STARLINK-5998,PAYLOAD,2024-04-29 23:04:34,14.98327086,0.0002886,70.0001,55.5877,269.3592,90.7236,0.00010579,1.169e-05,0.0,0 STARLINK-5998,1 56468U 23064W   24120.96150862  .00001169  00000-0  10579-3 0  9992,2 56468  70.0001  55.5877 0002886 269.3592  90.7236 14.98327086 53582,6950.202,96.107,574.073,570.061,0.0
56468.0,STARLINK-5998,PAYLOAD,2024-04-30 05:29:06,14.98329881,0.000305,70.0002,54.9153,268.6356,91.4454,0.00017952,2.05e-05,0.0,0 STARLINK-5998,1 56468U 23064W   24121.22854540  .00002050  00000-0  17952-3 0  9998,2 56468  70.0002  54.9153 0003050 268.6356  91.4454 14.98329881 53986,6950.193,96.107,574.178,569.938,0.0
56468.0,STARLINK-5998,PAYLOAD,2024-04-30 21:30:27,14.98335218,0.000301,70.0005,53.2321,268.6608,91.4206,-2.8154e-05,-4.29e-06,0.0,0 STARLINK-5998,1 56468U 23064W   24121.89614733 -.00000429  00000-0 -28154-4 0  9996,2 56468  70.0005  53.2321 0003010 268.6608  91.4206 14.98335218 53722,6950.177,96.107,574.134,569.95,0.0
56468.0,STARLINK-5998,PAYLOAD,2024-05-01 05:31:06,14.98341887,0.0002934,70.0006,52.3904,268.5685,91.5138,4.8873e-05,4.9e-06,0.0,0 STARLINK-5998,1 56468U 23064W   24122.22993924  .00000490  00000-0  48873-4 0  9992,2 56468  70.0006  52.3904 0002934 268.5685  91.5138 14.98341887 54138,6950.156,96.106,574.06,569.982,0.0
56468.0,STARLINK-5998,PAYLOAD,2024-05-01 18:20:11,14.98334313,0.0002772,70.001,51.0439,269.8162,90.2679,-2.9468e-05,-4.45e-06,0.0,0 STARLINK-5998,1 56468U 23064W   24122.76402404 -.00000445  00000-0 -29468-4 0  9990,2 56468  70.0010  51.0439 0002772 269.8162  90.2679 14.98334313 54217,6950.18,96.107,573.971,570.118,0.0
56468.0,STARLINK-5998,PAYLOAD,2024-05-02 11:57:40,14.98331194,0.0002671,70.0013,49.1931,268.4486,91.6368,-2.4437e-05,-3.85e-06,0.0,0 STARLINK-5998,1 56468U 23064W   24123.49838357 -.00000385  00000-0 -24437-4 0  9995,2 56468  70.0013  49.1931 0002671 268.4486  91.6368 14.98331194 53962,6950.189,96.107,573.911,570.198,0.0
56468.0,STARLINK-5998,PAYLOAD,2024-05-02 19:58:20,14.983333,0.0002639,70.0012,48.3516,267.15,92.9357,-4.458e-05,-6.25e-06,0.0,0 STARLINK-5998,1 56468U 23064W   24123.83218223 -.00000625  00000-0 -44580-4 0  9995,2 56468  70.0012  48.3516 0002639 267.1500  92.9357 14.98333300 54377,6950.183,96.107,573.882,570.214,0.0
56468.0,STARLINK-5998,PAYLOAD,2024-05-03 03:59:05,14.9827229,0.0003066,70.0011,47.5106,256.1668,103.915,-0.00073532,-8.843e-05,0.0,0 STARLINK-5998,1 56468U 23064W   24124.16603141 -.00008843  00000-0 -73532-3 0  9997,2 56468  70.0011  47.5106 0003066 256.1668 103.9150 14.98272290 54420,6950.371,96.111,574.367,570.105,0.0
56468.0,STARLINK-5998,PAYLOAD,2024-05-03 11:59:42,14.9830971,0.0003033,70.0014,46.6692,265.9133,94.1679,-0.00028933,-3.542e-05,0.0,0 STARLINK-5998,1 56468U 23064W   24124.49979932 -.00003542  00000-0 -28933-3 0  9993,2 56468  70.0014  46.6692 0003033 265.9133  94.1679 14.98309710 54472,6950.256,96.108,574.229,570.013,0.0
56468.0,STARLINK-5998,PAYLOAD,2024-05-03 21:36:31,14.98311669,0.0003057,70.0002,45.6572,268.7704,91.3105,-0.00024026,-2.957e-05,0.0,0 STARLINK-5998,1 56468U 23064W   24124.90036102 -.00002957  00000-0 -24026-3 0  9990,2 56468  70.0002  45.6572 0003057 268.7704  91.3105 14.98311669 54172,6950.25,96.108,574.239,569.99,0.0
56468.0,STARLINK-5998,PAYLOAD,2024-05-04 04:01:03,14.98314729,0.0002971,70.0005,44.9841,269.467,90.6149,-0.00015321,-1.92e-05,0.0,0 STARLINK-5998,1 56468U 23064W   24125.16739951 -.00001920  00000-0 -15321-3 0  9998,2 56468  70.0005  44.9841 0002971 269.4670  90.6149 14.98314729 54574,6950.24,96.108,574.17,570.04,0.0
56468.0,STARLINK-5998,PAYLOAD,2024-05-04 20:02:23,14.98319825,0.0003109,70.0004,43.301,268.501,91.5793,-1.3732e-05,-2.57e-06,0.0,0 STARLINK-5998,1 56468U 23064W   24125.83499721 -.00000257  00000-0 -13732-4 0  9997,2 56468  70.0004  43.3010 0003109 268.5010  91.5793 14.98319825 54674,6950.224,96.108,574.25,569.929,0.0
56468.0,STARLINK-5998,PAYLOAD,2024-05-05 04:03:03,14.98328988,0.00032,70.0004,42.4593,267.6815,92.3978,6.2422e-06,-1.9e-07,0.0,0 STARLINK-5998,1 56468U 23064W   24126.16879260 -.00000019  00000-0  62422-5 0  9990,2 56468  70.0004  42.4593 0003200 267.6815  92.3978 14.98328988 54725,6950.196,96.107,574.285,569.837,0.0
56468.0,STARLINK-5998,PAYLOAD,2024-05-05 21:40:31,14.98327701,0.0003222,70.0005,40.6077,268.4267,91.6523,0.00032341,3.768e-05,0.0,0 STARLINK-5998,1 56468U 23064W   24126.90314544  .00003768  00000-0  32341-3 0  9999,2 56468  70.0005  40.6077 0003222 268.4267  91.6523 14.98327701 54479,6950.2,96.107,574.304,569.826,0.0
